[{"OBJECT_NAME":"STARLINK-36359","OBJECT_ID":"2026-038U","EPOCH":"2026-03-03T14:00:03.000384","MEAN_MOTION":16.0738835,"ECCENTRICITY":8.9e-5,"INCLINATION":97.277,"RA_OF_ASC_NODE":72.362,"ARG_OF_PERICENTER":97.1337,"MEAN_ANOMALY":155.2302,"EPHEMERIS_TYPE":0,"CLASSIFICATION_TYPE":"U","NORAD_CAT_ID":67979,"ELEMENT_SET_NO":999,"REV_AT_EPOCH":221,"BSTAR":-0.0012377,"MEAN_MOTION_DOT":-0.00969587,"MEAN_MOTION_DDOT":0.00033794},{"OBJECT_NAME":"STARLINK-36882","OBJECT_ID":"2026-038V","EPOCH":"2026-03-03T14:00:03.000384","MEAN_MOTION":16.07809284,"ECCENTRICITY":9.3e-5,"INCLINATION":97.2767,"RA_OF_ASC_NODE":72.3646,"ARG_OF_PERICENTER":91.7912,"MEAN_ANOMALY":166.3032,"EPHEMERIS_TYPE":0,"CLASSIFICATION_TYPE":"U","NORAD_CAT_ID":67980,"ELEMENT_SET_NO":999,"REV_AT_EPOCH":221,"BSTAR":-0.0012089,"MEAN_MOTION_DOT":-0.00972237,"MEAN_MOTION_DDOT":0.00034145},{"OBJECT_NAME":"STARLINK-36874","OBJECT_ID":"2026-038W","EPOCH":"2026-03-03T14:00:03.000384","MEAN_MOTION":16.0803702,"ECCENTRICITY":9.35e-5,"INCLINATION":97.2766,"RA_OF_ASC_NODE":72.3662,"ARG_OF_PERICENTER":88.1957,"MEAN_ANOMALY":173.221,"EPHEMERIS_TYPE":0,"CLASSIFICATION_TYPE":"U","NORAD_CAT_ID":67981,"ELEMENT_SET_NO":999,"REV_AT_EPOCH":221,"BSTAR":-0.0011766,"MEAN_MOTION_DOT":-0.00960043,"MEAN_MOTION_DDOT":0.00033454},{"OBJECT_NAME":"STARLINK-36879","OBJECT_ID":"2026-038X","EPOCH":"2026-03-03T14:00:03.000384","MEAN_MOTION":16.08166341,"ECCENTRICITY":9.51e-5,"INCLINATION":97.2766,"RA_OF_ASC_NODE":72.3668,"ARG_OF_PERICENTER":90.9319,"MEAN_ANOMALY":172.1845,"EPHEMERIS_TYPE":0,"CLASSIFICATION_TYPE":"U","NORAD_CAT_ID":67982,"ELEMENT_SET_NO":999,"REV_AT_EPOCH":221,"BSTAR":-0.0011764,"MEAN_MOTION_DOT":-0.00967646,"MEAN_MOTION_DDOT":0.00034001},{"OBJECT_NAME":"STARLINK-36867","OBJECT_ID":"2026-038Y","EPOCH":"2026-03-03T14:00:03.000384","MEAN_MOTION":16.08404288,"ECCENTRICITY":0.0001015,"INCLINATION":97.2765,"RA_OF_ASC_NODE":72.3685,"ARG_OF_PERICENTER":75.252,"MEAN_ANOMALY":191.328,"EPHEMERIS_TYPE":0,"CLASSIFICATION_TYPE":"U","NORAD_CAT_ID":67983,"ELEMENT_SET_NO":999,"REV_AT_EPOCH":221,"BSTAR":-0.0011374,"MEAN_MOTION_DOT":-0.00949886,"MEAN_MOTION_DDOT":0.00032956},{"OBJECT_NAME":"STARLINK-36266","OBJECT_ID":"2026-038Z","EPOCH":"2026-03-03T14:00:03.000384","MEAN_MOTION":16.08305466,"ECCENTRICITY":9.87e-5,"INCLINATION":97.2765,"RA_OF_ASC_NODE":72.3678,"ARG_OF_PERICENTER":86.7577,"MEAN_ANOMALY":178.242,"EPHEMERIS_TYPE":0,"CLASSIFICATION_TYPE":"U","NORAD_CAT_ID":67984,"ELEMENT_SET_NO":999,"REV_AT_EPOCH":218,"BSTAR":-0.0011664,"MEAN_MOTION_DOT":-0.00967949,"MEAN_MOTION_DDOT":0.00034081},{"OBJECT_NAME":"STARLINK-36802","OBJECT_ID":"2026-038AA","EPOCH":"2026-03-03T14:00:03.000384","MEAN_MOTION":16.08493189,"ECCENTRICITY":0.0001439,"INCLINATION":97.2764,"RA_OF_ASC_NODE":72.3691,"ARG_OF_PERICENTER":95.7657,"MEAN_ANOMALY":172.2747,"EPHEMERIS_TYPE":0,"CLASSIFICATION_TYPE":"U","NORAD_CAT_ID":67985,"ELEMENT_SET_NO":999,"REV_AT_EPOCH":221,"BSTAR":-0.0011092,"MEAN_MOTION_DOT":-0.00931791,"MEAN_MOTION_DDOT":0.0003184},{"OBJECT_NAME":"STARLINK-36535","OBJECT_ID":"2026-039A","EPOCH":"2026-03-03T14:00:03.000384","MEAN_MOTION":16.01492659,"ECCENTRICITY":0.0001745,"INCLINATION":42.9991,"RA_OF_ASC_NODE":92.9731,"ARG_OF_PERICENTER":278.5695,"MEAN_ANOMALY":344.8084,"EPHEMERIS_TYPE":0,"CLASSIFICATION_TYPE":"U","NORAD_CAT_ID":67986,"ELEMENT_SET_NO":999,"REV_AT_EPOCH":189,"BSTAR":-0.0021112,"MEAN_MOTION_DOT":-0.01224918,"MEAN_MOTION_DDOT":0.00048269},{"OBJECT_NAME":"STARLINK-36744","OBJECT_ID":"2026-039B","EPOCH":"2026-03-03T14:00:03.000384","MEAN_MOTION":16.01576759,"ECCENTRICITY":0.0001729,"INCLINATION":42.999,"RA_OF_ASC_NODE":92.9709,"ARG_OF_PERICENTER":277.3159,"MEAN_ANOMALY":346.8529,"EPHEMERIS_TYPE":0,"CLASSIFICATION_TYPE":"U","NORAD_CAT_ID":67987,"ELEMENT_SET_NO":999,"REV_AT_EPOCH":189,"BSTAR":-0.0020928,"MEAN_MOTION_DOT":-0.01220295,"MEAN_MOTION_DDOT":0.00047981},{"OBJECT_NAME":"STARLINK-36734","OBJECT_ID":"2026-039C","EPOCH":"2026-03-03T14:00:03.000384","MEAN_MOTION":16.01717704,"ECCENTRICITY":0.0001748,"INCLINATION":42.999,"RA_OF_ASC_NODE":92.969,"ARG_OF_PERICENTER":277.6394,"MEAN_ANOMALY":347.3229,"EPHEMERIS_TYPE":0,"CLASSIFICATION_TYPE":"U","NORAD_CAT_ID":67988,"ELEMENT_SET_NO":999,"REV_AT_EPOCH":189,"BSTAR":-0.0020687,"MEAN_MOTION_DOT":-0.01216341,"MEAN_MOTION_DDOT":0.00047771},{"OBJECT_NAME":"STARLINK-36957","OBJECT_ID":"2026-039D","EPOCH":"2026-03-03T14:00:03.000384","MEAN_MOTION":16.01813853,"ECCENTRICITY":0.0001762,"INCLINATION":42.9989,"RA_OF_ASC_NODE":92.967,"ARG_OF_PERICENTER":278.4252,"MEAN_ANOMALY":347.2042,"EPHEMERIS_TYPE":0,"CLASSIFICATION_TYPE":"U","NORAD_CAT_ID":67989,"ELEMENT_SET_NO":999,"REV_AT_EPOCH":189,"BSTAR":-0.0020423,"MEAN_MOTION_DOT":-0.01207716,"MEAN_MOTION_DDOT":0.00047204},{"OBJECT_NAME":"STARLINK-36951","OBJECT_ID":"2026-039E","EPOCH":"2026-03-03T14:00:03.000384","MEAN_MOTION":16.0194974,"ECCENTRICITY":0.00018181,"INCLINATION":42.999,"RA_OF_ASC_NODE":92.9652,"ARG_OF_PERICENTER":277.2446,"MEAN_ANOMALY":349.1623,"EPHEMERIS_TYPE":0,"CLASSIFICATION_TYPE":"U","NORAD_CAT_ID":67990,"ELEMENT_SET_NO":999,"REV_AT_EPOCH":189,"BSTAR":-0.0020187153,"MEAN_MOTION_DOT":-0.01203403,"MEAN_MOTION_DDOT":0.00046966207},{"OBJECT_NAME":"STARLINK-36941","OBJECT_ID":"2026-039F","EPOCH":"2026-03-03T14:00:03.000384","MEAN_MOTION":16.02029759,"ECCENTRICITY":0.0001734,"INCLINATION":42.9989,"RA_OF_ASC_NODE":92.9634,"ARG_OF_PERICENTER":278.6654,"MEAN_ANOMALY":348.3551,"EPHEMERIS_TYPE":0,"CLASSIFICATION_TYPE":"U","NORAD_CAT_ID":67991,"ELEMENT_SET_NO":999,"REV_AT_EPOCH":189,"BSTAR":-0.0020009,"MEAN_MOTION_DOT":-0.01198456,"MEAN_MOTION_DDOT":0.00046655},{"OBJECT_NAME":"STARLINK-36950","OBJECT_ID":"2026-039G","EPOCH":"2026-03-03T14:00:03.000384","MEAN_MOTION":16.02154769,"ECCENTRICITY":0.000175,"INCLINATION":42.999,"RA_OF_ASC_NODE":92.9616,"ARG_OF_PERICENTER":277.6024,"MEAN_ANOMALY":350.1725,"EPHEMERIS_TYPE":0,"CLASSIFICATION_TYPE":"U","NORAD_CAT_ID":67992,"ELEMENT_SET_NO":999,"REV_AT_EPOCH":189,"BSTAR":-0.0019752,"MEAN_MOTION_DOT":-0.01191871,"MEAN_MOTION_DDOT":0.00046252},{"OBJECT_NAME":"STARLINK-36975","OBJECT_ID":"2026-039H","EPOCH":"2026-03-03T14:00:03.000384","MEAN_MOTION":16.02266174,"ECCENTRICITY":0.0001823,"INCLINATION":42.999,"RA_OF_ASC_NODE":92.9599,"ARG_OF_PERICENTER":277.2001,"MEAN_ANOMALY":351.2886,"EPHEMERIS_TYPE":0,"CLASSIFICATION_TYPE":"U","NORAD_CAT_ID":67993,"ELEMENT_SET_NO":999,"REV_AT_EPOCH":189,"BSTAR":-0.001948,"MEAN_MOTION_DOT":-0.01183344,"MEAN_MOTION_DDOT":0.00045705},{"OBJECT_NAME":"STARLINK-36993","OBJECT_ID":"2026-039J","EPOCH":"2026-03-03T14:00:03.000384","MEAN_MOTION":16.02402663,"ECCENTRICITY":0.0001773,"INCLINATION":42.9991,"RA_OF_ASC_NODE":92.958,"ARG_OF_PERICENTER":278.3645,"MEAN_ANOMALY":350.8986,"EPHEMERIS_TYPE":0,"CLASSIFICATION_TYPE":"U","NORAD_CAT_ID":67994,"ELEMENT_SET_NO":999,"REV_AT_EPOCH":189,"BSTAR":-0.0019321,"MEAN_MOTION_DOT":-0.01183208,"MEAN_MOTION_DDOT":0.00045765},{"OBJECT_NAME":"STARLINK-36968","OBJECT_ID":"2026-039K","EPOCH":"2026-03-03T14:00:03.000384","MEAN_MOTION":16.02714179,"ECCENTRICITY":0.0001796,"INCLINATION":42.9991,"RA_OF_ASC_NODE":92.9514,"ARG_OF_PERICENTER":278.7541,"MEAN_ANOMALY":353.1164,"EPHEMERIS_TYPE":0,"CLASSIFICATION_TYPE":"U","NORAD_CAT_ID":67995,"ELEMENT_SET_NO":999,"REV_AT_EPOCH":189,"BSTAR":-0.001902,"MEAN_MOTION_DOT":-0.01186525,"MEAN_MOTION_DDOT":0.00046159},{"OBJECT_NAME":"STARLINK-36979","OBJECT_ID":"2026-039L","EPOCH":"2026-03-03T14:00:03.000384","MEAN_MOTION":16.025943,"ECCENTRICITY":0.0001756,"INCLINATION":42.999,"RA_OF_ASC_NODE":92.9531,"ARG_OF_PERICENTER":278.5554,"MEAN_ANOMALY":352.5876,"EPHEMERIS_TYPE":0,"CLASSIFICATION_TYPE":"U","NORAD_CAT_ID":67996,"ELEMENT_SET_NO":999,"REV_AT_EPOCH":189,"BSTAR":-0.0019212,"MEAN_MOTION_DOT":-0.01189905,"MEAN_MOTION_DDOT":0.00046338},{"OBJECT_NAME":"STARLINK-36994","OBJECT_ID":"2026-039M","EPOCH":"2026-03-03T14:00:03.000384","MEAN_MOTION":16.02990922,"ECCENTRICITY":0.0001789,"INCLINATION":42.999,"RA_OF_ASC_NODE":92.9472,"ARG_OF_PERICENTER":278.5694,"MEAN_ANOMALY":354.8785,"EPHEMERIS_TYPE":0,"CLASSIFICATION_TYPE":"U","NORAD_CAT_ID":67997,"ELEMENT_SET_NO":999,"REV_AT_EPOCH":189,"BSTAR":-0.0018605,"MEAN_MOTION_DOT":-0.01180014,"MEAN_MOTION_DDOT":0.00045839},{"OBJECT_NAME":"STARLINK-36988","OBJECT_ID":"2026-039N","EPOCH":"2026-03-03T14:00:03.000384","MEAN_MOTION":16.02870609,"ECCENTRICITY":0.0001748,"INCLINATION":42.9991,"RA_OF_ASC_NODE":92.9492,"ARG_OF_PERICENTER":277.7253,"MEAN_ANOMALY":354.9822,"EPHEMERIS_TYPE":0,"CLASSIFICATION_TYPE":"U","NORAD_CAT_ID":67998,"ELEMENT_SET_NO":999,"REV_AT_EPOCH":189,"BSTAR":-0.001884,"MEAN_MOTION_DOT":-0.0118624,"MEAN_MOTION_DDOT":0.0004622},{"OBJECT_NAME":"STARLINK-36926","OBJECT_ID":"2026-039P","EPOCH":"2026-03-03T14:00:03.000384","MEAN_MOTION":16.03120618,"ECCENTRICITY":0.0001833,"INCLINATION":42.9991,"RA_OF_ASC_NODE":92.9455,"ARG_OF_PERICENTER":276.2339,"MEAN_ANOMALY":357.9852,"EPHEMERIS_TYPE":0,"CLASSIFICATION_TYPE":"U","NORAD_CAT_ID":67999,"ELEMENT_SET_NO":999,"REV_AT_EPOCH":189,"BSTAR":-0.0018348,"MEAN_MOTION_DOT":-0.0117281,"MEAN_MOTION_DDOT":0.00045395},{"OBJECT_NAME":"STARLINK-36931","OBJECT_ID":"2026-039Q","EPOCH":"2026-03-03T14:00:03.000384","MEAN_MOTION":16.03207784,"ECCENTRICITY":0.0001788,"INCLINATION":42.9992,"RA_OF_ASC_NODE":92.944,"ARG_OF_PERICENTER":278.0237,"MEAN_ANOMALY":356.8308,"EPHEMERIS_TYPE":0,"CLASSIFICATION_TYPE":"U","NORAD_CAT_ID":68000,"ELEMENT_SET_NO":999,"REV_AT_EPOCH":189,"BSTAR":-0.0018192,"MEAN_MOTION_DOT":-0.01168961,"MEAN_MOTION_DDOT":0.00045167},{"OBJECT_NAME":"STARLINK-36903","OBJECT_ID":"2026-039R","EPOCH":"2026-03-03T14:00:03.000384","MEAN_MOTION":16.03346782,"ECCENTRICITY":0.0001768,"INCLINATION":42.9994,"RA_OF_ASC_NODE":92.942,"ARG_OF_PERICENTER":278.6409,"MEAN_ANOMALY":356.9989,"EPHEMERIS_TYPE":0,"CLASSIFICATION_TYPE":"U","NORAD_CAT_ID":68001,"ELEMENT_SET_NO":999,"REV_AT_EPOCH":189,"BSTAR":-0.0018002,"MEAN_MOTION_DOT":-0.01166475,"MEAN_MOTION_DDOT":0.00045063}]
